CCSDS_OMM_VERS = 2.0
CREATION_DATE  = 
ORIGINATOR     = 

OBJECT_NAME    = UNKNOWN
OBJECT_ID      = 
CENTER_NAME    = EARTH
REF_FRAME      = TEME
TIME_SYSTEM    = UTC
MEAN_ELEMENT_THEORY = SGP/SGP4

EPOCH          = 2026-01-04T00:28:48.419904
MEAN_MOTION    = 14.75540865
ECCENTRICITY   = .0019453
INCLINATION    = 74.0186
RA_OF_ASC_NODE = 277.3324
ARG_OF_PERICENTER = 242.5142
MEAN_ANOMALY   = 117.4055

EPHEMERIS_TYPE = 0
CLASSIFICATION_TYPE = U
NORAD_CAT_ID   = 87304
ELEMENT_SET_NO = 999
REV_AT_EPOCH   = 64976
BSTAR          = .45471E-3
MEAN_MOTION_DOT = .3074E-4
MEAN_MOTION_DDOT = 0

CCSDS_OMM_VERS = 2.0
CREATION_DATE  = 
ORIGINATOR     = 

OBJECT_NAME    = UNKNOWN
OBJECT_ID      = 
CENTER_NAME    = EARTH
REF_FRAME      = TEME
TIME_SYSTEM    = UTC
MEAN_ELEMENT_THEORY = SGP/SGP4

EPOCH          = 2026-01-05T07:32:44.185056
MEAN_MOTION    = 13.70122273
ECCENTRICITY   = .0416075
INCLINATION    = 66.5941
RA_OF_ASC_NODE = 28.0435
ARG_OF_PERICENTER = 39.4485
MEAN_ANOMALY   = 323.6103

EPHEMERIS_TYPE = 0
CLASSIFICATION_TYPE = U
NORAD_CAT_ID   = 87320
ELEMENT_SET_NO = 999
REV_AT_EPOCH   = 59697
BSTAR          = .12957E-2
MEAN_MOTION_DOT = .2032E-4
MEAN_MOTION_DDOT = 0

CCSDS_OMM_VERS = 2.0
CREATION_DATE  = 
ORIGINATOR     = 

OBJECT_NAME    = UNKNOWN
OBJECT_ID      = 
CENTER_NAME    = EARTH
REF_FRAME      = TEME
TIME_SYSTEM    = UTC
MEAN_ELEMENT_THEORY = SGP/SGP4

EPOCH          = 2026-01-05T04:04:06.854592
MEAN_MOTION    = 14.07775033
ECCENTRICITY   = .0050513
INCLINATION    = 89.9937
RA_OF_ASC_NODE = 271.6965
ARG_OF_PERICENTER = 169.9578
MEAN_ANOMALY   = 190.2627

EPHEMERIS_TYPE = 0
CLASSIFICATION_TYPE = U
NORAD_CAT_ID   = 87334
ELEMENT_SET_NO = 999
REV_AT_EPOCH   = 38994
BSTAR          = .13407E-1
MEAN_MOTION_DOT = .23026E-3
MEAN_MOTION_DDOT = 0

CCSDS_OMM_VERS = 2.0
CREATION_DATE  = 
ORIGINATOR     = 

OBJECT_NAME    = UNKNOWN
OBJECT_ID      = 
CENTER_NAME    = EARTH
REF_FRAME      = TEME
TIME_SYSTEM    = UTC
MEAN_ELEMENT_THEORY = SGP/SGP4

EPOCH          = 2026-01-05T04:11:33.031968
MEAN_MOTION    = 14.08118212
ECCENTRICITY   = .0070439
INCLINATION    = 89.9807
RA_OF_ASC_NODE = 267.9640
ARG_OF_PERICENTER = 143.6504
MEAN_ANOMALY   = 216.9494

EPHEMERIS_TYPE = 0
CLASSIFICATION_TYPE = U
NORAD_CAT_ID   = 87335
ELEMENT_SET_NO = 999
REV_AT_EPOCH   = 39027
BSTAR          = .11834E-1
MEAN_MOTION_DOT = .20676E-3
MEAN_MOTION_DDOT = 0

CCSDS_OMM_VERS = 2.0
CREATION_DATE  = 
ORIGINATOR     = 

OBJECT_NAME    = UNKNOWN
OBJECT_ID      = 
CENTER_NAME    = EARTH
REF_FRAME      = TEME
TIME_SYSTEM    = UTC
MEAN_ELEMENT_THEORY = SGP/SGP4

EPOCH          = 2026-01-04T10:15:26.235936
MEAN_MOTION    = 13.96461911
ECCENTRICITY   = .005643
INCLINATION    = 82.7477
RA_OF_ASC_NODE = 42.2207
ARG_OF_PERICENTER = 263.5695
MEAN_ANOMALY   = 95.9045

EPHEMERIS_TYPE = 0
CLASSIFICATION_TYPE = U
NORAD_CAT_ID   = 87405
ELEMENT_SET_NO = 999
REV_AT_EPOCH   = 61432
BSTAR          = .19083E-2
MEAN_MOTION_DOT = .2684E-4
MEAN_MOTION_DDOT = 0

CCSDS_OMM_VERS = 2.0
CREATION_DATE  = 
ORIGINATOR     = 

OBJECT_NAME    = UNKNOWN
OBJECT_ID      = 
CENTER_NAME    = EARTH
REF_FRAME      = TEME
TIME_SYSTEM    = UTC
MEAN_ELEMENT_THEORY = SGP/SGP4

EPOCH          = 2026-01-05T03:40:02.308800
MEAN_MOTION    = 14.29951291
ECCENTRICITY   = .006927
INCLINATION    = 65.7837
RA_OF_ASC_NODE = 271.0622
ARG_OF_PERICENTER = 282.1162
MEAN_ANOMALY   = 227.7422

EPHEMERIS_TYPE = 0
CLASSIFICATION_TYPE = U
NORAD_CAT_ID   = 87426
ELEMENT_SET_NO = 999
REV_AT_EPOCH   = 62593
BSTAR          = .21621E-2
MEAN_MOTION_DOT = .5641E-4
MEAN_MOTION_DDOT = 0

CCSDS_OMM_VERS = 2.0
CREATION_DATE  = 
ORIGINATOR     = 

OBJECT_NAME    = UNKNOWN
OBJECT_ID      = 
CENTER_NAME    = EARTH
REF_FRAME      = TEME
TIME_SYSTEM    = UTC
MEAN_ELEMENT_THEORY = SGP/SGP4

EPOCH          = 2026-01-03T00:33:38.379168
MEAN_MOTION    = 13.90675960
ECCENTRICITY   = .0062255
INCLINATION    = 100.4512
RA_OF_ASC_NODE = 217.1731
ARG_OF_PERICENTER = 149.0608
MEAN_ANOMALY   = 211.4238

EPHEMERIS_TYPE = 0
CLASSIFICATION_TYPE = U
NORAD_CAT_ID   = 87448
ELEMENT_SET_NO = 999
REV_AT_EPOCH   = 61219
BSTAR          = .19054E-2
MEAN_MOTION_DOT = .2362E-4
MEAN_MOTION_DDOT = 0

CCSDS_OMM_VERS = 2.0
CREATION_DATE  = 
ORIGINATOR     = 

OBJECT_NAME    = UNKNOWN
OBJECT_ID      = 
CENTER_NAME    = EARTH
REF_FRAME      = TEME
TIME_SYSTEM    = UTC
MEAN_ELEMENT_THEORY = SGP/SGP4

EPOCH          = 2026-01-05T10:09:29.702880
MEAN_MOTION    = 14.13832505
ECCENTRICITY   = .0511236
INCLINATION    = 65.7761
RA_OF_ASC_NODE = 28.1196
ARG_OF_PERICENTER = 352.7308
MEAN_ANOMALY   = 6.6548

EPHEMERIS_TYPE = 0
CLASSIFICATION_TYPE = U
NORAD_CAT_ID   = 87456
ELEMENT_SET_NO = 999
REV_AT_EPOCH   = 61484
BSTAR          = .16984E-2
MEAN_MOTION_DOT = .11567E-3
MEAN_MOTION_DDOT = 0

CCSDS_OMM_VERS = 2.0
CREATION_DATE  = 
ORIGINATOR     = 

OBJECT_NAME    = UNKNOWN
OBJECT_ID      = 
CENTER_NAME    = EARTH
REF_FRAME      = TEME
TIME_SYSTEM    = UTC
MEAN_ELEMENT_THEORY = SGP/SGP4

EPOCH          = 2026-01-01T03:23:15.359136
MEAN_MOTION    = 13.61370423
ECCENTRICITY   = .0675157
INCLINATION    = 65.8171
RA_OF_ASC_NODE = 185.5445
ARG_OF_PERICENTER = 297.2231
MEAN_ANOMALY   = 160.3100

EPHEMERIS_TYPE = 0
CLASSIFICATION_TYPE = U
NORAD_CAT_ID   = 87517
ELEMENT_SET_NO = 999
REV_AT_EPOCH   = 59555
BSTAR          = .11505E-2
MEAN_MOTION_DOT = .4134E-4
MEAN_MOTION_DDOT = 0

CCSDS_OMM_VERS = 2.0
CREATION_DATE  = 
ORIGINATOR     = 

OBJECT_NAME    = UNKNOWN
OBJECT_ID      = 
CENTER_NAME    = EARTH
REF_FRAME      = TEME
TIME_SYSTEM    = UTC
MEAN_ELEMENT_THEORY = SGP/SGP4

EPOCH          = 2026-01-05T08:19:56.994816
MEAN_MOTION    = 13.35600122
ECCENTRICITY   = .0059463
INCLINATION    = 99.6990
RA_OF_ASC_NODE = 223.0793
ARG_OF_PERICENTER = 205.1899
MEAN_ANOMALY   = 332.5582

EPHEMERIS_TYPE = 0
CLASSIFICATION_TYPE = U
NORAD_CAT_ID   = 87541
ELEMENT_SET_NO = 999
REV_AT_EPOCH   = 58518
BSTAR          = .36276E-3
MEAN_MOTION_DOT = .145E-5
MEAN_MOTION_DDOT = 0

CCSDS_OMM_VERS = 2.0
CREATION_DATE  = 
ORIGINATOR     = 

OBJECT_NAME    = UNKNOWN
OBJECT_ID      = 
CENTER_NAME    = EARTH
REF_FRAME      = TEME
TIME_SYSTEM    = UTC
MEAN_ELEMENT_THEORY = SGP/SGP4

EPOCH          = 2026-01-03T02:30:45.289440
MEAN_MOTION    = 13.53609933
ECCENTRICITY   = .0698252
INCLINATION    = 65.6699
RA_OF_ASC_NODE = 304.1569
ARG_OF_PERICENTER = 218.0622
MEAN_ANOMALY   = 136.9103

EPHEMERIS_TYPE = 0
CLASSIFICATION_TYPE = U
NORAD_CAT_ID   = 87553
ELEMENT_SET_NO = 999
REV_AT_EPOCH   = 59414
BSTAR          = .99436E-3
MEAN_MOTION_DOT = .3233E-4
MEAN_MOTION_DDOT = 0

CCSDS_OMM_VERS = 2.0
CREATION_DATE  = 
ORIGINATOR     = 

OBJECT_NAME    = UNKNOWN
OBJECT_ID      = 
CENTER_NAME    = EARTH
REF_FRAME      = TEME
TIME_SYSTEM    = UTC
MEAN_ELEMENT_THEORY = SGP/SGP4

EPOCH          = 2026-01-02T20:27:03.785760
MEAN_MOTION    = 13.27993553
ECCENTRICITY   = .0081972
INCLINATION    = 101.7383
RA_OF_ASC_NODE = 226.0558
ARG_OF_PERICENTER = 327.6206
MEAN_ANOMALY   = 31.9894

EPHEMERIS_TYPE = 0
CLASSIFICATION_TYPE = U
NORAD_CAT_ID   = 87557
ELEMENT_SET_NO = 999
REV_AT_EPOCH   = 56783
BSTAR          = .15796E-1
MEAN_MOTION_DOT = .7245E-4
MEAN_MOTION_DDOT = 0

