UNKNOWN                 
1 87304U          26004.02000486  .00003074  00000+0  45471-3 0  9991
2 87304  74.0186 277.3324 0019453 242.5142 117.4055 14.75540865649760
UNKNOWN                 
1 87320U          26005.31440029  .00002032  00000+0  12957-2 0  9998
2 87320  66.5941  28.0435 0416075  39.4485 323.6103 13.70122273596973
UNKNOWN                 
1 87334U          26005.16952378  .00023026  00000+0  13407-1 0  9997
2 87334  89.9937 271.6965 0050513 169.9578 190.2627 14.07775033389944
UNKNOWN                 
1 87335U          26005.17468787  .00020676  00000+0  11834-1 0  9995
2 87335  89.9807 267.9640 0070439 143.6504 216.9494 14.08118212390273
UNKNOWN                 
1 87405U          26004.42738699  .00002684  00000+0  19083-2 0  9996
2 87405  82.7477  42.2207 0056430 263.5695  95.9045 13.96461911614321
UNKNOWN                 
1 87426U          26005.15280450  .00005641  00000+0  21621-2 0  9994
2 87426  65.7837 271.0622 0069270 282.1162 227.7422 14.29951291625935
UNKNOWN                 
1 87448U          26003.02336087  .00002362  00000+0  19054-2 0  9994
2 87448 100.4512 217.1731 0062255 149.0608 211.4238 13.90675960612192
UNKNOWN                 
1 87456U          26005.42326045  .00011567  00000+0  16984-2 0  9998
2 87456  65.7761  28.1196 0511236 352.7308   6.6548 14.13832505614841
UNKNOWN                 
1 87517U          26001.14114999  .00004134  00000+0  11505-2 0  9990
2 87517  65.8171 185.5445 0675157 297.2231 160.3100 13.61370423595557
UNKNOWN                 
1 87541U          26005.34718744  .00000145  00000+0  36276-3 0  9992
2 87541  99.6990 223.0793 0059463 205.1899 332.5582 13.35600122585184
UNKNOWN                 
1 87553U          26003.10469085  .00003233  00000+0  99436-3 0  9996
2 87553  65.6699 304.1569 0698252 218.0622 136.9103 13.53609933594140
UNKNOWN                 
1 87557U          26002.85212715  .00007245  00000+0  15796-1 0  9999
2 87557 101.7383 226.0558 0081972 327.6206  31.9894 13.27993553567838
